SHIYAN-29               
1 65486U 25196A   26113.71016876 -.00000286  00000+0  00000+0 0  9996
2 65486  28.7650  19.2234 0009850 177.7653   6.0294  1.00272253  2339
TJS-20                  
1 66142U 25238A   26115.65072333  .00000001  00000+0  00000+0 0  9992
2 66142   5.5863 299.7657 0003755 120.3363  90.2781  1.00267901  1803
CMS-03 (GSAT-7R)        
1 66311U 25249B   26115.97344946 -.00000091  00000+0  00000+0 0  9999
2 66311   0.0101 214.2271 0003671 161.4123 262.8059  1.00272270  1829
VIASAT-3 F2             
1 66454U 25261A   26115.40884416 -.00000247  00000+0  00000+0 0  9993
2 66454   0.0073 132.9683 0002523 352.2250 156.4166  1.00269939  2257
SHIJIAN-28 (SJ-28)      
1 66549U 25277A   26115.94674632 -.00000382  00000+0  00000+0 0  9991
2 66549   4.6720 272.9488 0000381   0.0385  38.6663  1.00271159  1637
TJS-22                  
1 66990U 25290A   26115.01648226 -.00000024  00000+0  00000+0 0  9997
2 66990   1.6594 285.9519 0002136   0.8929 358.5907  1.00272691  1495
TJS-23                  
1 67226U 25306A   26115.74553205 -.00000008  00000+0  00000+0 0  9992
2 67226   5.7079 297.7540 0004429 133.9456 225.8958  1.00271601  1364
FENGYUN 4C              
1 67246U 25312A   26115.87862603 -.00000337  00000+0  00000+0 0  9995
2 67246   0.0426  76.0536 0000358  43.3124 183.8173  1.00270545  1252
SHIJIAN-29A (SJ-29A)    
1 67302U 25315A   26115.98724824 -.00000081  00000+0  00000+0 0  9991
2 67302   3.2665  96.3821 0002721 322.0979 224.3963  1.00274661  1091
SHIJIAN-29B (SJ-29B)    
1 67403U 25315C   26115.98724793 -.00000082  00000+0  00000+0 0  9999
2 67403   3.2657  96.3776 0006419 338.4442 208.1400  1.00274717  1163
ELEKTRO-L 5             
1 67756U 26028A   26115.19639610 -.00000113  00000+0  00000+0 0  9993
2 67756   0.3626 296.9606 0000987 184.5136 238.5262  1.00271689   721
JAM-E JAM 1             
1 67757U 26028B   26115.93036624  .00000142  00000+0  00000+0 0  9993
2 67757   0.3775 291.2353 0000568 299.3632 352.2414  1.00265363   595
ECHOSTAR 25             
1 68126U 26045A   26114.80851147  .00000000  00000+0  00000+0 0  9996
2 68126   0.0161  49.1041 0002923  45.4072 280.5526  1.00269397   454
