[{"OBJECT_NAME":"SHIYAN-29","OBJECT_ID":"2025-196A","EPOCH":"2026-04-23T17:02:38.580864","MEAN_MOTION":1.00272253,"ECCENTRICITY":0.00098506,"INCLINATION":28.765,"RA_OF_ASC_NODE":19.2234,"ARG_OF_PERICENTER":177.7653,"MEAN_ANOMALY":6.0294,"EPHEMERIS_TYPE":0,"CLASSIFICATION_TYPE":"U","NORAD_CAT_ID":65486,"ELEMENT_SET_NO":999,"REV_AT_EPOCH":233,"BSTAR":0,"MEAN_MOTION_DOT":-2.86e-6,"MEAN_MOTION_DDOT":0},{"OBJECT_NAME":"TJS-20","OBJECT_ID":"2025-238A","EPOCH":"2026-04-25T15:37:02.495712","MEAN_MOTION":1.00267901,"ECCENTRICITY":0.00037558,"INCLINATION":5.5863,"RA_OF_ASC_NODE":299.7657,"ARG_OF_PERICENTER":120.3363,"MEAN_ANOMALY":90.2781,"EPHEMERIS_TYPE":0,"CLASSIFICATION_TYPE":"U","NORAD_CAT_ID":66142,"ELEMENT_SET_NO":999,"REV_AT_EPOCH":180,"BSTAR":0,"MEAN_MOTION_DOT":1.0e-8,"MEAN_MOTION_DDOT":0},{"OBJECT_NAME":"CMS-03 (GSAT-7R)","OBJECT_ID":"2025-249B","EPOCH":"2026-04-25T23:21:46.033344","MEAN_MOTION":1.0027227,"ECCENTRICITY":0.00036717,"INCLINATION":0.0101,"RA_OF_ASC_NODE":214.2271,"ARG_OF_PERICENTER":161.4123,"MEAN_ANOMALY":262.8059,"EPHEMERIS_TYPE":0,"CLASSIFICATION_TYPE":"U","NORAD_CAT_ID":66311,"ELEMENT_SET_NO":999,"REV_AT_EPOCH":182,"BSTAR":0,"MEAN_MOTION_DOT":-9.1e-7,"MEAN_MOTION_DDOT":0},{"OBJECT_NAME":"VIASAT-3 F2","OBJECT_ID":"2025-261A","EPOCH":"2026-04-25T09:48:44.135424","MEAN_MOTION":1.00269939,"ECCENTRICITY":0.00025231,"INCLINATION":0.0073,"RA_OF_ASC_NODE":132.9683,"ARG_OF_PERICENTER":352.225,"MEAN_ANOMALY":156.4166,"EPHEMERIS_TYPE":0,"CLASSIFICATION_TYPE":"U","NORAD_CAT_ID":66454,"ELEMENT_SET_NO":999,"REV_AT_EPOCH":225,"BSTAR":0,"MEAN_MOTION_DOT":-2.47e-6,"MEAN_MOTION_DDOT":0},{"OBJECT_NAME":"SHIJIAN-28 (SJ-28)","OBJECT_ID":"2025-277A","EPOCH":"2026-04-25T22:43:18.882048","MEAN_MOTION":1.00271159,"ECCENTRICITY":3.818e-5,"INCLINATION":4.672,"RA_OF_ASC_NODE":272.9488,"ARG_OF_PERICENTER":0.0385,"MEAN_ANOMALY":38.6663,"EPHEMERIS_TYPE":0,"CLASSIFICATION_TYPE":"U","NORAD_CAT_ID":66549,"ELEMENT_SET_NO":999,"REV_AT_EPOCH":163,"BSTAR":0,"MEAN_MOTION_DOT":-3.82e-6,"MEAN_MOTION_DDOT":0},{"OBJECT_NAME":"TJS-22","OBJECT_ID":"2025-290A","EPOCH":"2026-04-25T00:23:44.067264","MEAN_MOTION":1.00272691,"ECCENTRICITY":0.00021363,"INCLINATION":1.6594,"RA_OF_ASC_NODE":285.9519,"ARG_OF_PERICENTER":0.8929,"MEAN_ANOMALY":358.5907,"EPHEMERIS_TYPE":0,"CLASSIFICATION_TYPE":"U","NORAD_CAT_ID":66990,"ELEMENT_SET_NO":999,"REV_AT_EPOCH":149,"BSTAR":0,"MEAN_MOTION_DOT":-2.4e-7,"MEAN_MOTION_DDOT":0},{"OBJECT_NAME":"TJS-23","OBJECT_ID":"2025-306A","EPOCH":"2026-04-25T17:53:33.969120","MEAN_MOTION":1.00271601,"ECCENTRICITY":0.00044293,"INCLINATION":5.7079,"RA_OF_ASC_NODE":297.754,"ARG_OF_PERICENTER":133.9456,"MEAN_ANOMALY":225.8958,"EPHEMERIS_TYPE":0,"CLASSIFICATION_TYPE":"U","NORAD_CAT_ID":67226,"ELEMENT_SET_NO":999,"REV_AT_EPOCH":136,"BSTAR":0,"MEAN_MOTION_DOT":-8.0e-8,"MEAN_MOTION_DDOT":0},{"OBJECT_NAME":"FENGYUN 4C","OBJECT_ID":"2025-312A","EPOCH":"2026-04-25T21:05:13.288992","MEAN_MOTION":1.00270545,"ECCENTRICITY":3.585e-5,"INCLINATION":0.0426,"RA_OF_ASC_NODE":76.0536,"ARG_OF_PERICENTER":43.3124,"MEAN_ANOMALY":183.8173,"EPHEMERIS_TYPE":0,"CLASSIFICATION_TYPE":"U","NORAD_CAT_ID":67246,"ELEMENT_SET_NO":999,"REV_AT_EPOCH":125,"BSTAR":0,"MEAN_MOTION_DOT":-3.37e-6,"MEAN_MOTION_DDOT":0},{"OBJECT_NAME":"SHIJIAN-29A (SJ-29A)","OBJECT_ID":"2025-315A","EPOCH":"2026-04-25T23:41:38.247936","MEAN_MOTION":1.00274661,"ECCENTRICITY":0.00027213,"INCLINATION":3.2665,"RA_OF_ASC_NODE":96.3821,"ARG_OF_PERICENTER":322.0979,"MEAN_ANOMALY":224.3963,"EPHEMERIS_TYPE":0,"CLASSIFICATION_TYPE":"U","NORAD_CAT_ID":67302,"ELEMENT_SET_NO":999,"REV_AT_EPOCH":109,"BSTAR":0,"MEAN_MOTION_DOT":-8.1e-7,"MEAN_MOTION_DDOT":0},{"OBJECT_NAME":"SHIJIAN-29B (SJ-29B)","OBJECT_ID":"2025-315C","EPOCH":"2026-04-25T23:41:38.221152","MEAN_MOTION":1.00274717,"ECCENTRICITY":0.00064197,"INCLINATION":3.2657,"RA_OF_ASC_NODE":96.3776,"ARG_OF_PERICENTER":338.4442,"MEAN_ANOMALY":208.14,"EPHEMERIS_TYPE":0,"CLASSIFICATION_TYPE":"U","NORAD_CAT_ID":67403,"ELEMENT_SET_NO":999,"REV_AT_EPOCH":116,"BSTAR":0,"MEAN_MOTION_DOT":-8.2e-7,"MEAN_MOTION_DDOT":0},{"OBJECT_NAME":"ELEKTRO-L 5","OBJECT_ID":"2026-028A","EPOCH":"2026-04-25T04:42:48.623040","MEAN_MOTION":1.00271689,"ECCENTRICITY":9.87e-5,"INCLINATION":0.3626,"RA_OF_ASC_NODE":296.9606,"ARG_OF_PERICENTER":184.5136,"MEAN_ANOMALY":238.5262,"EPHEMERIS_TYPE":0,"CLASSIFICATION_TYPE":"U","NORAD_CAT_ID":67756,"ELEMENT_SET_NO":999,"REV_AT_EPOCH":72,"BSTAR":0,"MEAN_MOTION_DOT":-1.13e-6,"MEAN_MOTION_DDOT":0},{"OBJECT_NAME":"JAM-E JAM 1","OBJECT_ID":"2026-028B","EPOCH":"2026-04-25T22:19:43.643136","MEAN_MOTION":1.00265363,"ECCENTRICITY":5.684e-5,"INCLINATION":0.3775,"RA_OF_ASC_NODE":291.2353,"ARG_OF_PERICENTER":299.3632,"MEAN_ANOMALY":352.2414,"EPHEMERIS_TYPE":0,"CLASSIFICATION_TYPE":"U","NORAD_CAT_ID":67757,"ELEMENT_SET_NO":999,"REV_AT_EPOCH":59,"BSTAR":0,"MEAN_MOTION_DOT":1.42e-6,"MEAN_MOTION_DDOT":0},{"OBJECT_NAME":"ECHOSTAR 25","OBJECT_ID":"2026-045A","EPOCH":"2026-04-24T19:24:15.391008","MEAN_MOTION":1.00269397,"ECCENTRICITY":0.00029238,"INCLINATION":0.0161,"RA_OF_ASC_NODE":49.1041,"ARG_OF_PERICENTER":45.4072,"MEAN_ANOMALY":280.5526,"EPHEMERIS_TYPE":0,"CLASSIFICATION_TYPE":"U","NORAD_CAT_ID":68126,"ELEMENT_SET_NO":999,"REV_AT_EPOCH":45,"BSTAR":0,"MEAN_MOTION_DOT":0,"MEAN_MOTION_DDOT":0}]
